[
    {
        "Altitude(m)": 705082.1917509603,
        "Argument of Periapsis(deg)": 0.0034170363559881197,
        "Eccentricity": 0.0,
        "Inclination(deg)": 45.0,
        "Latitude(deg)": -9.193513750681134,
        "Longitude(deg)": 155.52555827427432,
        "Mean Anomaly(deg)": -12.903635005755845,
        "RAAN(deg)": 264.99677441756256,
        "Satellite Name": "Constellation 1 1187",
        "Satellite Number": 1187,
        "Semi-Major Axis(m)": 7083131.272910544,
        "Time(s)": 57
    },
    {
        "Altitude(m)": 705072.475936782,
        "Argument of Periapsis(deg)": 0.003476984362233526,
        "Eccentricity": 0.0,
        "Inclination(deg)": 45.0,
        "Latitude(deg)": -9.150886848053158,
        "Longitude(deg)": 155.56539920599536,
        "Mean Anomaly(deg)": -12.842933865505909,
        "RAAN(deg)": 264.996717828397,
        "Satellite Name": "Constellation 1 1187",
        "Satellite Number": 1187,
        "Semi-Major Axis(m)": 7083131.272910544,
        "Time(s)": 58
    },
    {
        "Altitude(m)": 705062.7773483356,
        "Argument of Periapsis(deg)": 0.003536932368478932,
        "Eccentricity": 0.0,
        "Inclination(deg)": 45.0,
        "Latitude(deg)": -9.108254432501578,
        "Longitude(deg)": 155.60522960206617,
        "Mean Anomaly(deg)": -12.782232725255971,
        "RAAN(deg)": 264.9966612392314,
        "Satellite Name": "Constellation 1 1187",
        "Satellite Number": 1187,
        "Semi-Major Axis(m)": 7083131.272910544,
        "Time(s)": 59
    },
    {
        "Altitude(m)": 705053.096011015,
        "Argument of Periapsis(deg)": 0.003596880374724337,
        "Eccentricity": 0.0,
        "Inclination(deg)": 45.0,
        "Latitude(deg)": -9.065616530969251,
        "Longitude(deg)": 155.64504984925787,
        "Mean Anomaly(deg)": -12.721531585006083,
        "RAAN(deg)": 264.9966046500658,
        "Satellite Name": "Constellation 1 1187",
        "Satellite Number": 1187,
        "Semi-Major Axis(m)": 7083131.272910544,
        "Time(s)": 60
    },
    {
        "Altitude(m)": 705043.4319501407,
        "Argument of Periapsis(deg)": 0.0036568283809697427,
        "Eccentricity": 0.0,
        "Inclination(deg)": 45.0,
        "Latitude(deg)": -9.022973170378629,
        "Longitude(deg)": 155.68485983002958,
        "Mean Anomaly(deg)": -12.660830444756249,
        "RAAN(deg)": 264.9965480609003,
        "Satellite Name": "Constellation 1 1187",
        "Satellite Number": 1187,
        "Semi-Major Axis(m)": 7083131.272910544,
        "Time(s)": 61
    },
    {
        "Altitude(m)": 705033.7851909377,
        "Argument of Periapsis(deg)": 0.003716776387215149,
        "Eccentricity": 0.0,
        "Inclination(deg)": 45.0,
        "Latitude(deg)": -8.98032437763304,
        "Longitude(deg)": 155.72465959491646,
        "Mean Anomaly(deg)": -12.600129304506261,
        "RAAN(deg)": 264.99649147173466,
        "Satellite Name": "Constellation 1 1187",
        "Satellite Number": 1187,
        "Semi-Major Axis(m)": 7083131.272910544,
        "Time(s)": 62
    },
    {
        "Altitude(m)": 705024.1557585604,
        "Argument of Periapsis(deg)": 0.003776724393460554,
        "Eccentricity": 0.0,
        "Inclination(deg)": 45.0,
        "Latitude(deg)": -8.937670179616806,
        "Longitude(deg)": 155.76444919443279,
        "Mean Anomaly(deg)": -12.539428164256323,
        "RAAN(deg)": 264.99643488256913,
        "Satellite Name": "Constellation 1 1187",
        "Satellite Number": 1187,
        "Semi-Major Axis(m)": 7083131.272910544,
        "Time(s)": 63
    },
    {
        "Altitude(m)": 705014.5436780765,
        "Argument of Periapsis(deg)": 0.003836672399705959,
        "Eccentricity": 0.0,
        "Inclination(deg)": 45.0,
        "Latitude(deg)": -8.895010603195042,
        "Longitude(deg)": 155.80422867907183,
        "Mean Anomaly(deg)": -12.478727024006538,
        "RAAN(deg)": 264.99637829340355,
        "Satellite Name": "Constellation 1 1187",
        "Satellite Number": 1187,
        "Semi-Major Axis(m)": 7083131.272910544,
        "Time(s)": 64
    },
    {
        "Altitude(m)": 705004.9489744669,
        "Argument of Periapsis(deg)": 0.003896620405951365,
        "Eccentricity": 0.0,
        "Inclination(deg)": 45.0,
        "Latitude(deg)": -8.85234567521342,
        "Longitude(deg)": 155.84399809930682,
        "Mean Anomaly(deg)": -12.4180258837566,
        "RAAN(deg)": 264.996321704238,
        "Satellite Name": "Constellation 1 1187",
        "Satellite Number": 1187,
        "Semi-Major Axis(m)": 7083131.272910544,
        "Time(s)": 65
    },
    {
        "Altitude(m)": 704995.3716726362,
        "Argument of Periapsis(deg)": 0.003956568412196771,
        "Eccentricity": 0.0,
        "Inclination(deg)": 45.0,
        "Latitude(deg)": -8.809675422499073,
        "Longitude(deg)": 155.88375750558978,
        "Mean Anomaly(deg)": -12.357324743506663,
        "RAAN(deg)": 264.99626511507245,
        "Satellite Name": "Constellation 1 1187",
        "Satellite Number": 1187,
        "Semi-Major Axis(m)": 7083131.272910544,
        "Time(s)": 66
    },
    {
        "Altitude(m)": 704985.8117973988,
        "Argument of Periapsis(deg)": 0.004016516418442176,
        "Eccentricity": 0.0,
        "Inclination(deg)": 45.0,
        "Latitude(deg)": -8.766999871859952,
        "Longitude(deg)": 155.9235067802551,
        "Mean Anomaly(deg)": -12.296623603256828,
        "RAAN(deg)": 264.9962085259068,
        "Satellite Name": "Constellation 1 1187",
        "Satellite Number": 1187,
        "Semi-Major Axis(m)": 7083131.272910544,
        "Time(s)": 67
    },
    {
        "Altitude(m)": 704976.2693734956,
        "Argument of Periapsis(deg)": 0.004076464424687581,
        "Eccentricity": 0.0,
        "Inclination(deg)": 45.0,
        "Latitude(deg)": -8.724319050085734,
        "Longitude(deg)": 155.96324630990858,
        "Mean Anomaly(deg)": -12.235922463006892,
        "RAAN(deg)": 264.9961519367413,
        "Satellite Name": "Constellation 1 1187",
        "Satellite Number": 1187,
        "Semi-Major Axis(m)": 7083131.272910544,
        "Time(s)": 68
    },
    {
        "Altitude(m)": 704966.7444255777,
        "Argument of Periapsis(deg)": 0.004136412430932987,
        "Eccentricity": 0.0,
        "Inclination(deg)": 45.0,
        "Latitude(deg)": -8.681632983946956,
        "Longitude(deg)": 156.00297597684383,
        "Mean Anomaly(deg)": -12.175221322756954,
        "RAAN(deg)": 264.9960953475757,
        "Satellite Name": "Constellation 1 1187",
        "Satellite Number": 1187,
        "Semi-Major Axis(m)": 7083131.272910544,
        "Time(s)": 69
    },
    {
        "Altitude(m)": 704957.2369782141,
        "Argument of Periapsis(deg)": 0.004196360437178394,
        "Eccentricity": 0.0,
        "Inclination(deg)": 45.0,
        "Latitude(deg)": -8.638941700195792,
        "Longitude(deg)": 156.04269583143156,
        "Mean Anomaly(deg)": -12.11452018250712,
        "RAAN(deg)": 264.9960387584102,
        "Satellite Name": "Constellation 1 1187",
        "Satellite Number": 1187,
        "Semi-Major Axis(m)": 7083131.272910544,
        "Time(s)": 70
    },
    {
        "Altitude(m)": 704947.7470558945,
        "Argument of Periapsis(deg)": 0.004256308443423799,
        "Eccentricity": 0.0,
        "Inclination(deg)": 45.0,
        "Latitude(deg)": -8.596245225565804,
        "Longitude(deg)": 156.08240592402234,
        "Mean Anomaly(deg)": -12.053819042257231,
        "RAAN(deg)": 264.9959821692446,
        "Satellite Name": "Constellation 1 1187",
        "Satellite Number": 1187,
        "Semi-Major Axis(m)": 7083131.272910544,
        "Time(s)": 71
    },
    {
        "Altitude(m)": 704938.274683015,
        "Argument of Periapsis(deg)": 0.004316256449669204,
        "Eccentricity": 0.0,
        "Inclination(deg)": 45.0,
        "Latitude(deg)": -8.553543586772154,
        "Longitude(deg)": 156.12210630494656,
        "Mean Anomaly(deg)": -11.993117902007244,
        "RAAN(deg)": 264.99592558007896,
        "Satellite Name": "Constellation 1 1187",
        "Satellite Number": 1187,
        "Semi-Major Axis(m)": 7083131.272910544,
        "Time(s)": 72
    },
    {
        "Altitude(m)": 704928.8198839055,
        "Argument of Periapsis(deg)": 0.00437620445591461,
        "Eccentricity": 0.0,
        "Inclination(deg)": 45.0,
        "Latitude(deg)": -8.51083681051204,
        "Longitude(deg)": 156.16179702451467,
        "Mean Anomaly(deg)": -11.932416761757409,
        "RAAN(deg)": 264.99586899091344,
        "Satellite Name": "Constellation 1 1187",
        "Satellite Number": 1187,
        "Semi-Major Axis(m)": 7083131.272910544,
        "Time(s)": 73
    },
    {
        "Altitude(m)": 704919.3826828002,
        "Argument of Periapsis(deg)": 0.004436152462160016,
        "Eccentricity": 0.0,
        "Inclination(deg)": 45.0,
        "Latitude(deg)": -8.468124923463893,
        "Longitude(deg)": 156.20147796492014,
        "Mean Anomaly(deg)": -11.871715621507521,
        "RAAN(deg)": 264.99581240174786,
        "Satellite Name": "Constellation 1 1187",
        "Satellite Number": 1187,
        "Semi-Major Axis(m)": 7083131.272910544,
        "Time(s)": 74
    },
    {
        "Altitude(m)": 704909.9631038392,
        "Argument of Periapsis(deg)": 0.0044961004684054215,
        "Eccentricity": 0.0,
        "Inclination(deg)": 45.0,
        "Latitude(deg)": -8.425407952288902,
        "Longitude(deg)": 156.2411495126279,
        "Mean Anomaly(deg)": -11.811014481257583,
        "RAAN(deg)": 264.99575581258233,
        "Satellite Name": "Constellation 1 1187",
        "Satellite Number": 1187,
        "Semi-Major Axis(m)": 7083131.272910544,
        "Time(s)": 75
    }
]